ORBCOMM FM24            
1 25478U 98053D   25124.05342662  .00001693  00000+0  60129-3 0  9992
2 25478  45.0061 118.3359 0003489 324.1816  35.8798 14.37991863391377
ORBCOMM FM25            
1 25479U 98053E   25124.37138376  .00001943  00000+0  68336-3 0  9999
2 25479  45.0054 115.0939 0004883 354.4664   5.6129 14.37969231391438
ORBCOMM FM26            
1 25480U 98053F   25124.21541845  .00001488  00000+0  54436-3 0  9993
2 25480  45.0057 111.9778 0005782  20.4014 339.7064 14.37046303391421
ORBCOMM FM27            
1 25481U 98053G   25123.66517846  .00002010  00000+0  70495-3 0  9991
2 25481  45.0035 118.6608 0002552 302.4446  57.6156 14.37992139391265
ORBCOMM FM28            
1 25482U 98053H   25123.84785720  .00001850  00000+0  65006-3 0  9993
2 25482  45.0058  55.3608 0004189  52.5065 307.6164 14.38199904391971
ORBCOMM FM30            
1 25980U 99065A   25124.21041374  .00001541  00000+0  55986-3 0  9995
2 25980  45.0319 297.8589 0007065 150.5198 209.6050 14.37214596328651
ORBCOMM FM31            
1 25981U 99065B   25123.76479711  .00001602  00000+0  58111-3 0  9996
2 25981  45.0233 293.4688 0004566 172.2245 187.8674 14.37160632327611
ORBCOMM FM32            
1 25982U 99065C   25124.54683332  .00001461  00000+0  54412-3 0  9993
2 25982  45.0162 306.0509 0006640 169.9733 190.1249 14.36199305328452
